[{"OBJECT_NAME":"MUSAT-2","OBJECT_ID":"2024-043B","EPOCH":"2026-03-09T22:04:01.255008","MEAN_MOTION":15.07177436,"ECCENTRICITY":0.0006495,"INCLINATION":97.8438,"RA_OF_ASC_NODE":205.4399,"ARG_OF_PERICENTER":314.3478,"MEAN_ANOMALY":45.7216,"EPHEMERIS_TYPE":0,"CLASSIFICATION_TYPE":"U","NORAD_CAT_ID":59099,"ELEMENT_SET_NO":999,"REV_AT_EPOCH":11013,"BSTAR":0.00067214198,"MEAN_MOTION_DOT":0.00010059,"MEAN_MOTION_DDOT":0},{"OBJECT_NAME":"STARLINK-34991","OBJECT_ID":"2025-194N","EPOCH":"2026-03-09T20:22:41.145312","MEAN_MOTION":15.05650191,"ECCENTRICITY":0.00024363,"INCLINATION":97.6021,"RA_OF_ASC_NODE":284.581,"ARG_OF_PERICENTER":92.4548,"MEAN_ANOMALY":267.6958,"EPHEMERIS_TYPE":0,"CLASSIFICATION_TYPE":"U","NORAD_CAT_ID":65446,"ELEMENT_SET_NO":999,"REV_AT_EPOCH":2967,"BSTAR":0.00040621797,"MEAN_MOTION_DOT":5.806e-5,"MEAN_MOTION_DDOT":0}]
